CSS (TIANHE)            
1 48274U 21035A   25123.53444466  .00048523  00000+0  55871-3 0  9995
2 48274  41.4679 292.1862 0005341 199.4901 272.4308 15.61133057229173
ISS (NAUKA)             
1 49044U 21066A   25123.76994336  .00009070  00000+0  17067-3 0  9995
2 49044  51.6346 167.0693 0002284  76.2260 283.8983 15.49323238212892
CSS (WENTIAN)           
1 53239U 22085A   25123.53444466  .00048523  00000+0  55871-3 0  9998
2 53239  41.4679 292.1862 0005341 199.4901 272.4308 15.61133057156832
CSS (MENGTIAN)          
1 54216U 22143A   25123.53444466  .00048523  00000+0  55871-3 0  9999
2 54216  41.4679 292.1862 0005341 199.4901 272.4308 15.61133057141595
TIANZHOU-8              
1 61983U 24211A   25123.53444466  .00048523  00000+0  55871-3 0  9996
2 61983  41.4679 292.1862 0005341 199.4901 272.4308 15.61133057 24662
PROGRESS-MS 29          
1 62030U 24215A   25123.76994336  .00009070  00000+0  17067-3 0  9994
2 62030  51.6346 167.0693 0002284  76.2260 283.8983 15.49323238 23825
PROGRESS-MS 30          
1 63129U 25041B   25123.76994336  .00009070  00000+0  17067-3 0  9992
2 63129  51.6346 167.0693 0002284  76.2260 283.8983 15.49323238  8569
CREW DRAGON 10          
1 63204U 25049A   25123.76994336  .00009070  00000+0  17067-3 0  9994
2 63204  51.6346 167.0693 0002284  76.2260 283.8983 15.49323238  6257
SOYUZ-MS 27             
1 63520U 25072A   25123.76994336  .00009070  00000+0  17067-3 0  9991
2 63520  51.6346 167.0693 0002284  76.2260 283.8983 15.49323238  2489
DRAGON CRS-32           
1 63628U 25080A   25112.61160205  .00023037  00000+0  41242-3 0  9992
2 63628  51.6358 222.3046 0005488  64.0762 296.0791 15.49852613   204
SHENZHOU-20 (SZ-20)     
1 63632U 25082A   25123.20292272  .00120018  00000+0  10830-2 0  9991
2 63632  41.4598 293.4102 0010335 335.3136  24.7209 15.66916602229122
