[
  {
    "OBJECT_NAME": "CSS (TIANHE)",
    "OBJECT_ID": "2021-035A",
    "EPOCH": "2025-05-03T12:49:36.018624",
    "MEAN_MOTION": 15.61133057,
    "ECCENTRICITY": 0.0005341,
    "INCLINATION": 41.4679,
    "RA_OF_ASC_NODE": 292.1862,
    "ARG_OF_PERICENTER": 199.4901,
    "MEAN_ANOMALY": 272.4308,
    "EPHEMERIS_TYPE": 0,
    "CLASSIFICATION_TYPE": "U",
    "NORAD_CAT_ID": 48274,
    "ELEMENT_SET_NO": 999,
    "REV_AT_EPOCH": 22917,
    "BSTAR": 0.00055871,
    "MEAN_MOTION_DOT": 0.00048523,
    "MEAN_MOTION_DDOT": 0
  },
  {
    "OBJECT_NAME": "ISS (NAUKA)",
    "OBJECT_ID": "2021-066A",
    "EPOCH": "2025-05-03T18:28:43.106304",
    "MEAN_MOTION": 15.49323238,
    "ECCENTRICITY": 0.0002284,
    "INCLINATION": 51.6346,
    "RA_OF_ASC_NODE": 167.0693,
    "ARG_OF_PERICENTER": 76.226,
    "MEAN_ANOMALY": 283.8983,
    "EPHEMERIS_TYPE": 0,
    "CLASSIFICATION_TYPE": "U",
    "NORAD_CAT_ID": 49044,
    "ELEMENT_SET_NO": 999,
    "REV_AT_EPOCH": 21289,
    "BSTAR": 0.00017067,
    "MEAN_MOTION_DOT": 9.07e-05,
    "MEAN_MOTION_DDOT": 0
  },
  {
    "OBJECT_NAME": "CSS (WENTIAN)",
    "OBJECT_ID": "2022-085A",
    "EPOCH": "2025-05-03T12:49:36.018624",
    "MEAN_MOTION": 15.61133057,
    "ECCENTRICITY": 0.0005341,
    "INCLINATION": 41.4679,
    "RA_OF_ASC_NODE": 292.1862,
    "ARG_OF_PERICENTER": 199.4901,
    "MEAN_ANOMALY": 272.4308,
    "EPHEMERIS_TYPE": 0,
    "CLASSIFICATION_TYPE": "U",
    "NORAD_CAT_ID": 53239,
    "ELEMENT_SET_NO": 999,
    "REV_AT_EPOCH": 15683,
    "BSTAR": 0.00055871,
    "MEAN_MOTION_DOT": 0.00048523,
    "MEAN_MOTION_DDOT": 0
  },
  {
    "OBJECT_NAME": "CSS (MENGTIAN)",
    "OBJECT_ID": "2022-143A",
    "EPOCH": "2025-05-03T12:49:36.018624",
    "MEAN_MOTION": 15.61133057,
    "ECCENTRICITY": 0.0005341,
    "INCLINATION": 41.4679,
    "RA_OF_ASC_NODE": 292.1862,
    "ARG_OF_PERICENTER": 199.4901,
    "MEAN_ANOMALY": 272.4308,
    "EPHEMERIS_TYPE": 0,
    "CLASSIFICATION_TYPE": "U",
    "NORAD_CAT_ID": 54216,
    "ELEMENT_SET_NO": 999,
    "REV_AT_EPOCH": 14159,
    "BSTAR": 0.00055871,
    "MEAN_MOTION_DOT": 0.00048523,
    "MEAN_MOTION_DDOT": 0
  },
  {
    "OBJECT_NAME": "TIANZHOU-8",
    "OBJECT_ID": "2024-211A",
    "EPOCH": "2025-05-03T12:49:36.018624",
    "MEAN_MOTION": 15.61133057,
    "ECCENTRICITY": 0.0005341,
    "INCLINATION": 41.4679,
    "RA_OF_ASC_NODE": 292.1862,
    "ARG_OF_PERICENTER": 199.4901,
    "MEAN_ANOMALY": 272.4308,
    "EPHEMERIS_TYPE": 0,
    "CLASSIFICATION_TYPE": "U",
    "NORAD_CAT_ID": 61983,
    "ELEMENT_SET_NO": 999,
    "REV_AT_EPOCH": 2466,
    "BSTAR": 0.00055871,
    "MEAN_MOTION_DOT": 0.00048523,
    "MEAN_MOTION_DDOT": 0
  },
  {
    "OBJECT_NAME": "PROGRESS-MS 29",
    "OBJECT_ID": "2024-215A",
    "EPOCH": "2025-05-03T18:28:43.106304",
    "MEAN_MOTION": 15.49323238,
    "ECCENTRICITY": 0.0002284,
    "INCLINATION": 51.6346,
    "RA_OF_ASC_NODE": 167.0693,
    "ARG_OF_PERICENTER": 76.226,
    "MEAN_ANOMALY": 283.8983,
    "EPHEMERIS_TYPE": 0,
    "CLASSIFICATION_TYPE": "U",
    "NORAD_CAT_ID": 62030,
    "ELEMENT_SET_NO": 999,
    "REV_AT_EPOCH": 2382,
    "BSTAR": 0.00017067,
    "MEAN_MOTION_DOT": 9.07e-05,
    "MEAN_MOTION_DDOT": 0
  },
  {
    "OBJECT_NAME": "PROGRESS-MS 30",
    "OBJECT_ID": "2025-041B",
    "EPOCH": "2025-05-03T18:28:43.106304",
    "MEAN_MOTION": 15.49323238,
    "ECCENTRICITY": 0.0002284,
    "INCLINATION": 51.6346,
    "RA_OF_ASC_NODE": 167.0693,
    "ARG_OF_PERICENTER": 76.226,
    "MEAN_ANOMALY": 283.8983,
    "EPHEMERIS_TYPE": 0,
    "CLASSIFICATION_TYPE": "U",
    "NORAD_CAT_ID": 63129,
    "ELEMENT_SET_NO": 999,
    "REV_AT_EPOCH": 856,
    "BSTAR": 0.00017067,
    "MEAN_MOTION_DOT": 9.07e-05,
    "MEAN_MOTION_DDOT": 0
  },
  {
    "OBJECT_NAME": "CREW DRAGON 10",
    "OBJECT_ID": "2025-049A",
    "EPOCH": "2025-05-03T18:28:43.106304",
    "MEAN_MOTION": 15.49323238,
    "ECCENTRICITY": 0.0002284,
    "INCLINATION": 51.6346,
    "RA_OF_ASC_NODE": 167.0693,
    "ARG_OF_PERICENTER": 76.226,
    "MEAN_ANOMALY": 283.8983,
    "EPHEMERIS_TYPE": 0,
    "CLASSIFICATION_TYPE": "U",
    "NORAD_CAT_ID": 63204,
    "ELEMENT_SET_NO": 999,
    "REV_AT_EPOCH": 625,
    "BSTAR": 0.00017067,
    "MEAN_MOTION_DOT": 9.07e-05,
    "MEAN_MOTION_DDOT": 0
  },
  {
    "OBJECT_NAME": "SOYUZ-MS 27",
    "OBJECT_ID": "2025-072A",
    "EPOCH": "2025-05-03T18:28:43.106304",
    "MEAN_MOTION": 15.49323238,
    "ECCENTRICITY": 0.0002284,
    "INCLINATION": 51.6346,
    "RA_OF_ASC_NODE": 167.0693,
    "ARG_OF_PERICENTER": 76.226,
    "MEAN_ANOMALY": 283.8983,
    "EPHEMERIS_TYPE": 0,
    "CLASSIFICATION_TYPE": "U",
    "NORAD_CAT_ID": 63520,
    "ELEMENT_SET_NO": 999,
    "REV_AT_EPOCH": 248,
    "BSTAR": 0.00017067,
    "MEAN_MOTION_DOT": 9.07e-05,
    "MEAN_MOTION_DDOT": 0
  },
  {
    "OBJECT_NAME": "DRAGON CRS-32",
    "OBJECT_ID": "2025-080A",
    "EPOCH": "2025-04-22T14:40:42.417120",
    "MEAN_MOTION": 15.49852613,
    "ECCENTRICITY": 0.0005488,
    "INCLINATION": 51.6358,
    "RA_OF_ASC_NODE": 222.3046,
    "ARG_OF_PERICENTER": 64.0762,
    "MEAN_ANOMALY": 296.0791,
    "EPHEMERIS_TYPE": 0,
    "CLASSIFICATION_TYPE": "U",
    "NORAD_CAT_ID": 63628,
    "ELEMENT_SET_NO": 999,
    "REV_AT_EPOCH": 20,
    "BSTAR": 0.00041242,
    "MEAN_MOTION_DOT": 0.00023037,
    "MEAN_MOTION_DDOT": 0
  },
  {
    "OBJECT_NAME": "SHENZHOU-20 (SZ-20)",
    "OBJECT_ID": "2025-082A",
    "EPOCH": "2025-05-03T04:52:12.523008",
    "MEAN_MOTION": 15.66916602,
    "ECCENTRICITY": 0.0010335,
    "INCLINATION": 41.4598,
    "RA_OF_ASC_NODE": 293.4102,
    "ARG_OF_PERICENTER": 335.3136,
    "MEAN_ANOMALY": 24.7209,
    "EPHEMERIS_TYPE": 0,
    "CLASSIFICATION_TYPE": "U",
    "NORAD_CAT_ID": 63632,
    "ELEMENT_SET_NO": 999,
    "REV_AT_EPOCH": 22912,
    "BSTAR": 0.001083,
    "MEAN_MOTION_DOT": 0.00120018,
    "MEAN_MOTION_DDOT": 0
  }
]